LEMUR-1                 
1 40044U 14033AL  26165.86860903  .00001824  00000+0  21426-3 0  9995
2 40044  97.7872 315.7251 0049744  86.0571 274.6329 14.85239023645121
LEMUR-2-GREENBERG       
1 42837U 17042N   26165.73455131  .00014863  00000+0  49379-3 0  9993
2 42837  97.3808 346.3707 0008768  22.6789 337.4838 15.31261970488016
LEMUR-2-ANDIS           
1 42838U 17042P   26165.76944382  .00018613  00000+0  55345-3 0  9995
2 42838  97.3668 346.5811 0008360  21.1351 339.0236 15.34761127488085
LEMUR-2-MONSON          
1 42839U 17042Q   26165.73800755  .00012414  00000+0  45726-3 0  9993
2 42839  97.4069 346.3502 0006441  15.0579 345.0851 15.27953931487794
LEMUR-2-FURIAUS         
1 42840U 17042R   26165.72661628  .00015735  00000+0  54036-3 0  9991
2 42840  97.3761 344.3239 0008284  76.5873 283.6291 15.30180313487835
LEMUR-2-PETERG          
1 42841U 17042S   26165.75207891  .00017790  00000+0  54587-3 0  9997
2 42841  97.3979 350.7784 0003441   6.5114 353.6173 15.33803284488069
LEMUR-2-DEMBITZ         
1 42842U 17042T   26165.74656929  .00014456  00000+0  49617-3 0  9991
2 42842  97.3815 347.3656 0006973  37.2397 322.9326 15.30227744487972
LEMUR-2-ZACHARY         
1 42845U 17042W   26165.80162367  .00041025  00000+0  72879-3 0  9997
2 42845  97.3591 357.3881 0003082  42.4359 317.7130 15.50082183488830
LEMUR-2-AMANDA-SVANTE   
1 48269U 21034B   26165.81387036  .00028290  00000+0  85552-3 0  9993
2 48269  97.5769 244.0366 0001969 214.8504 145.2609 15.34174898280690
LEMUR-2-SPECIAL-K       
1 48273U 21034F   26165.78233023  .00140667  00000+0  14786-2 0  9993
2 48273  97.5658 252.4665 0003897 230.7148 129.3765 15.63858842281316
LEMUR-2-EMBRIONOVIS     
1 56970U 23084AQ  26165.85878697  .00012107  00000+0  33106-3 0  9998
2 56970  97.6283 309.9684 0007883 329.4514  30.6269 15.37499670167323
LEMUR-2-DEVERILL-M-T    
1 57391U 23100F   26165.83028814  .00024452  00000+0  62108-3 0  9991
2 57391  99.4468 203.9078 0006558  57.8601 302.3274 15.39650729160888
LEMUR-2-BASS            
1 58259U 23174D   26165.48661187  .00017348  00000+0  39468-3 0  9992
2 58259  97.3853 250.1608 0007503 170.9427 189.1957 15.43015535144947
LEMUR-2-JK0903EM1407    
1 58336U 23174CJ  26165.75758797  .00024281  00000+0  41056-3 0  9992
2 58336  97.3929 256.1590 0005829 126.8328 233.3459 15.51571623145351
LEMUR-2-MJR092620       
1 58340U 23174CN  26165.76212382  .00017464  00000+0  37420-3 0  9998
2 58340  97.3985 255.7460 0007079 125.0541 235.1372 15.44800066145279
LEMUR-2-NIMBUS2000      
1 58899U 24022A   26165.54461933  .00016103  00000+0  40571-3 0  9994
2 58899  97.4109  15.5134 0010245 124.0287 236.1933 15.39922834131868
LEMUR-2-VALHALLA        
1 58900U 24022B   26165.54028660  .00015160  00000+0  38606-3 0  9991
2 58900  97.4106  15.5012 0010804 120.3749 239.8566 15.39602672131863
LEMUR-2-CAEL            
1 58903U 24022E   26165.55234340  .00016435  00000+0  40103-3 0  9990
2 58903  97.4089  16.4446 0009278 105.2573 254.9700 15.40900746131938
LEMUR-2-JOHNNYTRUONG    
1 59146U 24043BA  26165.71313834  .00037369  00000+0  45722-3 0  9998
2 59146  97.5370 317.2631 0004724 183.7273 176.3949 15.60300782127651
LEMUR-2-TOMATOKECHUP    
1 60471U 24149D   26165.76208083  .00011131  00000+0  31985-3 0  9997
2 60471  97.3808 247.8023 0001199 180.2523 179.8720 15.35989840101796
LEMUR-2-STELLA          
1 60533U 24149BT  26165.76517536  .00010870  00000+0  64057-3 0  9997
2 60533  97.6746 248.2092 0001683  94.2493 265.8929 15.11766673100133
LEMUR-2-MARHISYAM       
1 60536U 24149BW  26165.81082363  .00010091  00000+0  60398-3 0  9990
2 60536  97.6889 248.7017 0003413 121.1157 239.0407 15.11222126100129
LEMUR-2-AHMED-ASRAR     
1 60576U 24149DN  26165.78109640  .00011637  00000+0  66855-3 0  9999
2 60576  97.7013 250.7551 0002001  46.2621 313.8774 15.12667739100205
LEMUR-2-LLOYD           
1 60577U 24149DP  26165.78804079  .00009512  00000+0  60200-3 0  9995
2 60577  97.6749 246.9153 0004722 147.0942 213.0581 15.09197220100031
LEMUR-2-SQUIRRELCOMM    
1 60578U 24149DQ  26165.66612098  .00005237  00000+0  35256-3 0  9994
2 60578  97.6715 246.5851 0006665  69.3063 290.8878 15.07127102100025
LEMUR-2-SIERRINI        
1 60579U 24149DR  26165.76763201  .00010682  00000+0  64451-3 0  9998
2 60579  97.6851 248.3485 0005655 172.0998 188.0321 15.10905025100097
LEMUR-2-WILSON          
1 62694U 25009CP  26165.48496654  .00002331  00000+0  21750-3 0  9995
2 62694  97.7025 243.9967 0004279  63.7028 296.4632 14.95153772 76950
LEMUR-2-STAR-FOX        
1 62696U 25009CR  26165.76185760  .00007574  00000+0  57500-3 0  9997
2 62696  97.6960 247.3875 0003637 117.1359 243.0237 15.02474120 77191
LEMUR-2-ARIANNA         
1 62699U 25009CU  26165.76016644  .00007466  00000+0  56715-3 0  9991
2 62699  97.6902 247.1625 0003944 123.4331 236.7271 15.02455517 77198
LEMUR-2-ALISIA          
1 62706U 25009DB  26165.87170586  .00006994  00000+0  52768-3 0  9997
2 62706  97.6964 248.0571 0001715 190.6952 169.4237 15.02742741 99819
