OBJECT_NAME,OBJECT_ID,EPOCH,MEAN_MOTION,ECCENTRICITY,INCLINATION,RA_OF_ASC_NODE,ARG_OF_PERICENTER,MEAN_ANOMALY,EPHEMERIS_TYPE,CLASSIFICATION_TYPE,NORAD_CAT_ID,ELEMENT_SET_NO,REV_AT_EPOCH,BSTAR,MEAN_MOTION_DOT,MEAN_MOTION_DDOT
LEMUR-1,2014-033AL,2026-06-14T20:50:47.820192,14.85239023,.0049744,97.7872,315.7251,86.0571,274.6329,0,U,40044,999,64512,.21426E-3,.1824E-4,0
LEMUR-2-GREENBERG,2017-042N,2026-06-14T17:37:45.233184,15.31261970,.0008768,97.3808,346.3707,22.6789,337.4838,0,U,42837,999,48801,.49379E-3,.14863E-3,0
LEMUR-2-ANDIS,2017-042P,2026-06-14T18:27:59.946048,15.34761127,.000836,97.3668,346.5811,21.1351,339.0236,0,U,42838,999,48808,.55345E-3,.18613E-3,0
LEMUR-2-MONSON,2017-042Q,2026-06-14T17:42:43.852320,15.27953931,.0006441,97.4069,346.3502,15.0579,345.0851,0,U,42839,999,48779,.45726E-3,.12414E-3,0
LEMUR-2-FURIAUS,2017-042R,2026-06-14T17:26:19.646592,15.30180313,.0008284,97.3761,344.3239,76.5873,283.6291,0,U,42840,999,48783,.54036E-3,.15735E-3,0
LEMUR-2-PETERG,2017-042S,2026-06-14T18:02:59.617824,15.33803284,.0003441,97.3979,350.7784,6.5114,353.6173,0,U,42841,999,48806,.54587E-3,.1779E-3,0
LEMUR-2-DEMBITZ,2017-042T,2026-06-14T17:55:03.586656,15.30227744,.0006973,97.3815,347.3656,37.2397,322.9326,0,U,42842,999,48797,.49617E-3,.14456E-3,0
LEMUR-2-ZACHARY,2017-042W,2026-06-14T19:14:20.285088,15.50082183,.0003082,97.3591,357.3881,42.4359,317.7130,0,U,42845,999,48883,.72879E-3,.41025E-3,0
LEMUR-2-AMANDA-SVANTE,2021-034B,2026-06-14T19:31:58.399104,15.34174898,.0001969,97.5769,244.0366,214.8504,145.2609,0,U,48269,999,28069,.85552E-3,.2829E-3,0
LEMUR-2-SPECIAL-K,2021-034F,2026-06-14T18:46:33.331872,15.63858842,.0003897,97.5658,252.4665,230.7148,129.3765,0,U,48273,999,28131,.14786E-2,.140667E-2,0
LEMUR-2-EMBRIONOVIS,2023-084AQ,2026-06-14T20:36:39.194208,15.37499670,.0007883,97.6283,309.9684,329.4514,30.6269,0,U,56970,999,16732,.33106E-3,.12107E-3,0
LEMUR-2-DEVERILL-M-T,2023-100F,2026-06-14T19:55:36.895296,15.39650729,.0006558,99.4468,203.9078,57.8601,302.3274,0,U,57391,999,16088,.62108E-3,.24452E-3,0
LEMUR-2-BASS,2023-174D,2026-06-14T11:40:43.265568,15.43015535,.00075035,97.3853,250.1608,170.9427,189.1957,0,U,58259,999,14494,.39468281E-3,.17348E-3,0
LEMUR-2-JK0903EM1407,2023-174CJ,2026-06-14T18:10:55.600608,15.51571623,.0005829,97.3929,256.1590,126.8328,233.3459,0,U,58336,999,14535,.41056E-3,.24281E-3,0
LEMUR-2-MJR092620,2023-174CN,2026-06-14T18:17:27.498048,15.44800066,.0007079,97.3985,255.7460,125.0541,235.1372,0,U,58340,999,14527,.3742E-3,.17464E-3,0
LEMUR-2-NIMBUS2000,2024-022A,2026-06-14T13:04:15.110112,15.39922834,.0010245,97.4109,15.5134,124.0287,236.1933,0,U,58899,999,13186,.40571E-3,.16103E-3,0
LEMUR-2-VALHALLA,2024-022B,2026-06-14T12:58:00.762240,15.39602672,.0010804,97.4106,15.5012,120.3749,239.8566,0,U,58900,999,13186,.38606E-3,.1516E-3,0
LEMUR-2-CAEL,2024-022E,2026-06-14T13:15:22.469760,15.40900746,.0009278,97.4089,16.4446,105.2573,254.9700,0,U,58903,999,13193,.40103E-3,.16435E-3,0
LEMUR-2-JOHNNYTRUONG,2024-043BA,2026-06-14T17:06:55.152576,15.60300782,.0004724,97.5370,317.2631,183.7273,176.3949,0,U,59146,999,12765,.45722E-3,.37369E-3,0
LEMUR-2-TOMATOKECHUP,2024-149D,2026-06-14T18:17:23.783712,15.35989840,.0001199,97.3808,247.8023,180.2523,179.8720,0,U,60471,999,10179,.31985E-3,.11131E-3,0
LEMUR-2-STELLA,2024-149BT,2026-06-14T18:21:51.151104,15.11766673,.0001683,97.6746,248.2092,94.2493,265.8929,0,U,60533,999,10013,.64057E-3,.1087E-3,0
LEMUR-2-MARHISYAM,2024-149BW,2026-06-14T19:27:35.161632,15.11222126,.0003413,97.6889,248.7017,121.1157,239.0407,0,U,60536,999,10012,.60398E-3,.10091E-3,0
LEMUR-2-AHMED-ASRAR,2024-149DN,2026-06-14T18:44:46.728960,15.12667739,.0002001,97.7013,250.7551,46.2621,313.8774,0,U,60576,999,10020,.66855E-3,.11637E-3,0
LEMUR-2-LLOYD,2024-149DP,2026-06-14T18:54:46.724256,15.09197220,.0004722,97.6749,246.9153,147.0942,213.0581,0,U,60577,999,10003,.602E-3,.9512E-4,0
LEMUR-2-SQUIRRELCOMM,2024-149DQ,2026-06-14T15:59:12.852672,15.07127102,.0006665,97.6715,246.5851,69.3063,290.8878,0,U,60578,999,10002,.35256E-3,.5237E-4,0
LEMUR-2-SIERRINI,2024-149DR,2026-06-14T18:25:23.405664,15.10905025,.0005655,97.6851,248.3485,172.0998,188.0321,0,U,60579,999,10009,.64451E-3,.10682E-3,0
LEMUR-2-WILSON,2025-009CP,2026-06-14T11:38:21.109056,14.95153772,.00042798,97.7025,243.9967,63.7028,296.4632,0,U,62694,999,7695,.21750484E-3,.2331E-4,0
LEMUR-2-STAR-FOX,2025-009CR,2026-06-14T18:17:04.496640,15.02474120,.0003637,97.6960,247.3875,117.1359,243.0237,0,U,62696,999,7719,.575E-3,.7574E-4,0
LEMUR-2-ARIANNA,2025-009CU,2026-06-14T18:14:38.380416,15.02455517,.0003944,97.6902,247.1625,123.4331,236.7271,0,U,62699,999,7719,.56715E-3,.7466E-4,0
LEMUR-2-ALISIA,2025-009DB,2026-06-14T20:55:15.386304,15.02742741,.0001715,97.6964,248.0571,190.6952,169.4237,0,U,62706,999,9981,.52768E-3,.6994E-4,0
